BEESAT-8                
1 48085U 21022AP  24208.68800225  .00036668  00000+0  10676-2 0  9999
2 48085  97.4730 111.2404 0010267 359.2102   0.9123 15.35268096183932
LEDSAT                  
1 49069U 21073D   24209.19751785  .00019303  00000+0  73932-3 0  9993
2 49069  97.4351 280.0981 0019750 141.0773 219.1892 15.26396632162556
ROBUSTA-1F (MTCUBE 2)   
1 53109U 22080E   24208.93738902 -.00000003  00000+0  00000+0 0  9999
2 53109  70.1201 178.3004 0007683  79.2298 280.9226  6.42584440 47710
SITRO-AIS 5 (KATYS)     
1 57176U 23091L   24209.41214512  .00008445  00000+0  53236-3 0  9990
2 57176  97.6101 261.2641 0016578 349.5962  10.4921 15.09274265 59562
SITRO-AIS 6 (CHIRKIN)   
1 57192U 23091AC  24209.39573062  .00008017  00000+0  50485-3 0  9991
2 57192  97.6096 261.2752 0016350 349.6001  10.4887 15.09331644 59565
SITRO-AIS 8 (ANOKHIN)   
1 57193U 23091AD  24209.42078028  .00009543  00000+0  59392-3 0  9999
2 57193  97.6095 261.3867 0016138 349.9353  10.1551 15.09708989 59576
SITRO-AIS 7 (FARTUSHNIY)
1 57194U 23091AE  24209.40197247  .00008207  00000+0  51743-3 0  9991
2 57194  97.6097 261.2598 0016255 350.4211   9.6706 15.09282647 59561
SITRO-AIS 10 (BURDAEV)  
1 57199U 23091AK  24209.40842964  .00009608  00000+0  56889-3 0  9991
2 57199  97.6111 262.3973 0010958 339.4950  20.5839 15.11579706 59638
SITRO-AIS 9 (SHCHUKIN)  
1 57201U 23091AM  24209.40721481  .00009389  00000+0  55638-3 0  9992
2 57201  97.6106 262.3733 0010919 339.4177  20.6612 15.11558343 59632
SITRO-AIS 12 (SMIRENNIY)
1 57204U 23091AQ  24209.43079769  .00010440  00000+0  61487-3 0  9992
2 57204  97.6112 262.5439 0010841 331.8577  28.2066 15.11752384 59640
SITRO-AIS 11 (SHEFFER)  
1 57208U 23091AU  24209.41420732  .00009729  00000+0  57188-3 0  9995
2 57208  97.6113 262.5540 0010583 333.1047  26.9633 15.11843671 59643
ROBUSTA-1E (ENSO)       
1 58470U 23185J   24209.45063388  .00017090  00000+0  68966-3 0  9991
2 58470  97.4238 275.7829 0013539 135.4680 224.7648 15.24776602 36278
SITRO-AIS 29            
1 59052U 24039B   24209.41368504  .00024331  00000+0  83669-3 0  9994
2 59052  97.3933 171.1451 0019804  78.9669 281.3797 15.29887947 22746
SITRO-AIS 30            
1 59053U 24039C   24209.41486220  .00024206  00000+0  83439-3 0  9997
2 59053  97.3931 171.1389 0019933  79.5513 280.7972 15.29808843 22738
SITRO-AIS 31            
1 59054U 24039D   24209.40456616  .00024068  00000+0  82598-3 0  9994
2 59054  97.3932 171.1534 0019778  79.4583 280.8884 15.29955740 22759
SITRO-AIS 33            
1 59055U 24039E   24209.39299231  .00024155  00000+0  82539-3 0  9993
2 59055  97.3936 171.1750 0019512  80.1444 280.1998 15.30100820 22746
SITRO-AIS 35            
1 59056U 24039F   24209.38887300  .00024812  00000+0  84718-3 0  9994
2 59056  97.3934 171.1773 0019294  80.4379 279.9040 15.30124604 22747
SITRO-AIS 32            
1 59057U 24039G   24209.33305621  .00023950  00000+0  82162-3 0  9994
2 59057  97.3935 171.1016 0019388  80.7275 279.6157 15.29976782 22736
SITRO-AIS 34            
1 59058U 24039H   24209.32811705  .00025035  00000+0  85644-3 0  9993
2 59058  97.3936 171.1106 0019541  80.5925 279.7524 15.30055261 22730
SITRO-AIS 36            
1 59059U 24039J   24209.44824555  .00025180  00000+0  85804-3 0  9993
2 59059  97.3934 171.2508 0019112  80.3825 279.9574 15.30189333 22754
SITRO-AIS 49            
1 59060U 24039K   24209.38394746  .00025205  00000+0  86042-3 0  9995
2 59060  97.3934 171.1843 0019114  80.2037 280.1361 15.30131216 22747
SITRO-AIS 50            
1 59061U 24039L   24209.43673662  .00026465  00000+0  89791-3 0  9992
2 59061  97.3935 171.2647 0019071  80.0525 280.2867 15.30320943 22754
SITRO-AIS 51            
1 59062U 24039M   24209.43659956  .00025223  00000+0  85633-3 0  9995
2 59062  97.3934 171.2656 0019079  80.0338 280.3055 15.30310223 22754
SITRO-AIS 52            
1 59063U 24039N   24209.42818721  .00023801  00000+0  80545-3 0  9999
2 59063  97.3936 171.2783 0018947  80.1713 280.1666 15.30429085 22752
SITRO-AIS 25            
1 59066U 24039R   24209.42134434  .00003867  00000+0  36920-3 0  9992
2 59066  95.4007 124.6235 0169495 203.9002 155.4284 14.83326892 22072
SITRO-AIS 26            
1 59067U 24039S   24209.42173349  .00003717  00000+0  35540-3 0  9992
2 59067  95.4006 124.6224 0169445 203.9293 155.3987 14.83292100 22070
SITRO-AIS 27            
1 59068U 24039T   24209.40795634  .00003785  00000+0  36059-3 0  9999
2 59068  95.4008 124.6388 0169045 203.7734 155.5614 14.83468454 22074
SITRO-AIS 28            
1 59071U 24039U   24209.40427584  .00004010  00000+0  38161-3 0  9997
2 59071  95.4009 124.6437 0168877 203.7547 155.5815 14.83511623 22078
GRBBETA                 
1 60237U 24128C   24209.43091791  .00004585  00000+0  41267-3 0  9990
2 60237  61.9945 100.8130 0010535 292.9498  67.0478 14.96992199  2625
OOV-CUBE                
1 60240U 24128F   24209.23688047  .00003305  00000+0  30670-3 0  9993
2 60240  61.9980 101.5459 0010208 275.6173  84.3751 14.96414154  2609
ROBUSTA-3A (MEDITERRAN*)
1 60243U 24128J   24209.24397503  .00006746  00000+0  61583-3 0  9990
2 60243  61.9920 101.5594 0012718 264.5544  95.4093 14.95882928  2602
BEIJING 1               
1 28890U 05043A   24209.45964767  .00000627  00000+0  13334-3 0  9995
2 28890  98.2046 332.0346 0013626 281.2706  78.6964 14.62414012999780
HUANJING 1A (HJ-1A)     
1 33320U 08041A   24209.45685123  .00002184  00000+0  29321-3 0  9999
2 33320  97.6317 214.4863 0018846 236.9069 123.0335 14.80170692856314
HUANJING 1B (HJ-1B)     
1 33321U 08041B   24209.45334840  .00001551  00000+0  20735-3 0  9994
2 33321  97.6266 219.0125 0036646 285.0525  74.6634 14.80419747856332
YAOGAN-4                
1 33446U 08061A   24209.38881262  .00001740  00000+0  23646-3 0  9995
2 33446  97.8792 140.5106 0015738 149.7912 210.4211 14.79982237843501
DEIMOS-1                
1 35681U 09041A   24209.46762677  .00000989  00000+0  15962-3 0  9990
2 35681  97.6817  29.2344 0000324 168.0066 192.1151 14.73426317805240
UK-DMC 2                
1 35683U 09041C   24209.40696548  .00001505  00000+0  23921-3 0  9998
2 35683  97.7863 355.4095 0001237  83.1648 276.9701 14.73465966804938
DMC3-FM1                
1 40715U 15032A   24209.42526949  .00001112  00000+0  14042-3 0  9994
2 40715  97.7447  87.1533 0006383 148.1663 211.9939 14.83796632487544
DMC3-FM2                
1 40716U 15032B   24209.44794913  .00001169  00000+0  14733-3 0  9994
2 40716  97.7500  88.2717 0008128 155.4417 204.7186 14.83803825487545
DMC3-FM3                
1 40717U 15032C   24209.40753363  .00001120  00000+0  14173-3 0  9990
2 40717  97.7549  89.5273 0009641 154.4803 205.6889 14.83711379487541
NOAA 15                 
1 25338U 98030A   24209.42435968  .00000312  00000+0  14707-3 0  9996
2 25338  98.5672 235.7086 0009876 200.6778 159.4004 14.26639598363177
DMSP 5D-3 F16 (USA 172) 
1 28054U 03048A   24209.42596671  .00000180  00000+0  11870-3 0  9999
2 28054  99.0212 216.2722 0006356 304.8014 192.4349 14.14057606 71965
NOAA 18                 
1 28654U 05018A   24209.42156926  .00000291  00000+0  17893-3 0  9993
2 28654  98.8735 286.0517 0013267 311.9495  48.0546 14.13263431988940
METEOSAT-9 (MSG-2)      
1 28912U 05049B   24209.19354948  .00000120  00000+0  00000+0 0  9991
2 28912   7.7757  60.5309 0000653   2.8064 357.3422  1.00270389    88
EWS-G1 (GOES 13)        
1 29155U 06018A   24208.76299578  .00000081  00000+0  00000+0 0  9993
2 29155   2.7265  84.8457 0075842 255.8386 300.4914  0.99029446 36424
DMSP 5D-3 F17 (USA 191) 
1 29522U 06050A   24209.43527620  .00000196  00000+0  12485-3 0  9995
2 29522  98.7440 219.1809 0009248 220.0379 140.0113 14.14508848914883
FENGYUN 3A              
1 32958U 08026A   24209.43283054  .00000238  00000+0  13431-3 0  9996
2 32958  98.6052 155.3929 0007993 323.5603  36.5028 14.19130677837666
NOAA 19                 
1 33591U 09005A   24209.44954098  .00000271  00000+0  16923-3 0  9998
2 33591  99.0448 265.6704 0014013 174.6207 185.5117 14.13057821797310
GOES 14                 
1 35491U 09033A   24209.20569499 -.00000068  00000+0  00000+0 0  9991
2 35491   0.4297 100.3817 0003683  20.9799 149.5816  1.00271594 55195
DMSP 5D-3 F18 (USA 210) 
1 35951U 09057A   24209.38082878  .00000428  00000+0  24736-3 0  9993
2 35951  98.8162 184.1956 0012246  55.9929 304.2405 14.14180108762042
EWS-G2 (GOES 15)        
1 36411U 10008A   24209.26785966  .00000036  00000+0  00000+0 0  9997
2 36411   0.5096 274.4958 0005172 283.3563 265.2514  1.00276762 52712
COMS 1                  
1 36744U 10032A   24208.53717815 -.00000348  00000+0  00000+0 0  9997
2 36744   3.0427  83.9389 0000856  59.4471 122.8302  1.00269707 44166
FENGYUN 3B              
1 37214U 10059A   24209.54509205  .00000120  00000+0  86125-4 0  9997
2 37214  99.0534 238.1976 0021776 341.3883 173.0118 14.14526975709953
SUOMI NPP               
1 37849U 11061A   24209.43052424  .00000161  00000+0  97043-4 0  9995
2 37849  98.7222 146.8073 0001746 110.6604 249.4759 14.19535537660575
FENGYUN 2F              
1 38049U 12002A   24209.46666052 -.00000361  00000+0  00000+0 0  9990
2 38049   5.6911  72.7326 0002141 126.8885  25.8914  1.00261775 45974
METEOSAT-10 (MSG-3)     
1 38552U 12035B   24209.33799326 -.00000010  00000+0  00000+0 0  9993
2 38552   3.0535  61.2610 0000246 201.7013 164.2581  1.00273534 44306
METOP-B                 
1 38771U 12049A   24209.43636290  .00000209  00000+0  11515-3 0  9998
2 38771  98.6256 265.7504 0001089  81.4694 278.6607 14.21456645615267
INSAT-3D                
1 39216U 13038B   24209.46919589 -.00000359  00000+0  00000+0 0  9990
2 39216   0.1358  95.4278 0001313  94.6508  40.5358  1.00560108 40386
